STARLINK-32462          
1 62129U 24222R   26068.53414897  .00020418  00000+0  74956-3 0  9993
2 62129  43.0035 133.7368 0002113 270.1900  89.8710 15.27574971 72767
TEVEL2-3                
1 63218U 25052J   26068.64540225  .00020365  00000+0  69446-3 0  9991
2 63218  97.3994 324.7775 0004761 105.7353 254.4413 15.30377031 54855
